[
    {
        "Altitude(m)": 559346.4865229564,
        "Argument of Periapsis(deg)": 0.033114955553567506,
        "Eccentricity": 0.0,
        "Inclination(deg)": 53.0,
        "Latitude(deg)": -21.331130476829227,
        "Longitude(deg)": 68.02965461343878,
        "Mean Anomaly(deg)": -153.1783356621121,
        "RAAN(deg)": 334.9507168426401,
        "Satellite Name": "Starlink Shell 1 1483",
        "Satellite Number": 1483,
        "Semi-Major Axis(m)": 6931778.249405717,
        "Time(s)": 950
    },
    {
        "Altitude(m)": 559508.35151409,
        "Argument of Periapsis(deg)": 0.03346353403307874,
        "Eccentricity": 0.0,
        "Inclination(deg)": 53.0,
        "Latitude(deg)": -21.8112293123035,
        "Longitude(deg)": 68.42296059225595,
        "Mean Anomaly(deg)": -152.55150445855534,
        "RAAN(deg)": 334.9501980725626,
        "Satellite Name": "Starlink Shell 1 1483",
        "Satellite Number": 1483,
        "Semi-Major Axis(m)": 6931778.249405717,
        "Time(s)": 960
    },
    {
        "Altitude(m)": 559671.4697317745,
        "Argument of Periapsis(deg)": 0.03381211251258998,
        "Eccentricity": 0.0,
        "Inclination(deg)": 53.0,
        "Latitude(deg)": -22.290134754432938,
        "Longitude(deg)": 68.81915471180217,
        "Mean Anomaly(deg)": -151.92467325499868,
        "RAAN(deg)": 334.94967930248515,
        "Satellite Name": "Starlink Shell 1 1483",
        "Satellite Number": 1483,
        "Semi-Major Axis(m)": 6931778.249405717,
        "Time(s)": 970
    },
    {
        "Altitude(m)": 559835.7834709409,
        "Argument of Periapsis(deg)": 0.034160690992101214,
        "Eccentricity": 0.0,
        "Inclination(deg)": 53.0,
        "Latitude(deg)": -22.767810689136812,
        "Longitude(deg)": 69.21831975216706,
        "Mean Anomaly(deg)": -151.2978420514419,
        "RAAN(deg)": 334.9491605324077,
        "Satellite Name": "Starlink Shell 1 1483",
        "Satellite Number": 1483,
        "Semi-Major Axis(m)": 6931778.249405717,
        "Time(s)": 980
    },
    {
        "Altitude(m)": 560001.2343442191,
        "Argument of Periapsis(deg)": 0.034509269471612446,
        "Eccentricity": 0.0,
        "Inclination(deg)": 53.0,
        "Latitude(deg)": -23.24422030758691,
        "Longitude(deg)": 69.62054014365339,
        "Mean Anomaly(deg)": -150.67101084788519,
        "RAAN(deg)": 334.9486417623302,
        "Satellite Name": "Starlink Shell 1 1483",
        "Satellite Number": 1483,
        "Semi-Major Axis(m)": 6931778.249405717,
        "Time(s)": 990
    }
]